[{"OBJECT_NAME":"STARLINK-31039","OBJECT_ID":"2024-011V","EPOCH":"2026-03-09T23:33:07.163424","MEAN_MOTION":15.30180102,"ECCENTRICITY":0.0001024,"INCLINATION":53.1634,"RA_OF_ASC_NODE":12.4032,"ARG_OF_PERICENTER":78.2875,"MEAN_ANOMALY":281.824,"EPHEMERIS_TYPE":0,"CLASSIFICATION_TYPE":"U","NORAD_CAT_ID":58784,"ELEMENT_SET_NO":999,"REV_AT_EPOCH":12031,"BSTAR":9.7795374e-5,"MEAN_MOTION_DOT":2.537e-5,"MEAN_MOTION_DDOT":0},{"OBJECT_NAME":"TRANSPORTER-11 OBJECT A","OBJECT_ID":"2024-149A","EPOCH":"2026-03-09T17:54:54.302112","MEAN_MOTION":15.31141332,"ECCENTRICITY":0.00031096,"INCLINATION":97.378,"RA_OF_ASC_NODE":149.0949,"ARG_OF_PERICENTER":191.001,"MEAN_ANOMALY":169.1164,"EPHEMERIS_TYPE":0,"CLASSIFICATION_TYPE":"U","NORAD_CAT_ID":60468,"ELEMENT_SET_NO":999,"REV_AT_EPOCH":8683,"BSTAR":0.00036053677,"MEAN_MOTION_DOT":0.00010774,"MEAN_MOTION_DDOT":0}]
